{"fetched_at":"2026-07-19T07:04:49.137Z","source":"https://celestrak.org/NORAD/elements/gp.php?GROUP=oneweb&FORMAT=JSON","constellation":"oneweb","records":[{"OBJECT_NAME":"ONEWEB-0340","OBJECT_ID":"2021-083W","EPOCH":"2026-07-18T18:34:35.246784","CLASSIFICATION_TYPE":"U","MEAN_MOTION":13.18685901,"ECCENTRICITY":0.000183,"INCLINATION":87.9201,"RA_OF_ASC_NODE":329.1755,"ARG_OF_PERICENTER":94.1294,"MEAN_ANOMALY":266.0048,"EPHEMERIS_TYPE":0,"NORAD_CAT_ID":49206,"ELEMENT_SET_NO":999,"REV_AT_EPOCH":23413,"BSTAR":-0.00043954,"MEAN_MOTION_DOT":-0.0000016,"MEAN_MOTION_DDOT":0},{"OBJECT_NAME":"ONEWEB-0341","OBJECT_ID":"2021-083X","EPOCH":"2026-07-18T18:44:17.491200","CLASSIFICATION_TYPE":"U","MEAN_MOTION":13.18685205,"ECCENTRICITY":0.000233,"INCLINATION":87.9196,"RA_OF_ASC_NODE":329.1756,"ARG_OF_PERICENTER":88.4406,"MEAN_ANOMALY":271.6993,"EPHEMERIS_TYPE":0,"NORAD_CAT_ID":49207,"ELEMENT_SET_NO":999,"REV_AT_EPOCH":23415,"BSTAR":-0.00037386,"MEAN_MOTION_DOT":-0.00000134,"MEAN_MOTION_DDOT":0},{"OBJECT_NAME":"ONEWEB-0342","OBJECT_ID":"2021-083Y","EPOCH":"2026-07-18T17:08:23.951040","CLASSIFICATION_TYPE":"U","MEAN_MOTION":13.20784032,"ECCENTRICITY":0.0002071,"INCLINATION":87.9175,"RA_OF_ASC_NODE":268.1536,"ARG_OF_PERICENTER":105.2985,"MEAN_ANOMALY":254.8378,"EPHEMERIS_TYPE":0,"NORAD_CAT_ID":49208,"ELEMENT_SET_NO":999,"REV_AT_EPOCH":24094,"BSTAR":0.00022517,"MEAN_MOTION_DOT":0.00000105,"MEAN_MOTION_DDOT":0},{"OBJECT_NAME":"ONEWEB-0343","OBJECT_ID":"2021-083Z","EPOCH":"2026-07-18T18:56:26.091168","CLASSIFICATION_TYPE":"U","MEAN_MOTION":13.18687475,"ECCENTRICITY":0.00023,"INCLINATION":87.9194,"RA_OF_ASC_NODE":329.1729,"ARG_OF_PERICENTER":104.3681,"MEAN_ANOMALY":255.7706,"EPHEMERIS_TYPE":0,"NORAD_CAT_ID":49209,"ELEMENT_SET_NO":999,"REV_AT_EPOCH":23420,"BSTAR":0.000158,"MEAN_MOTION_DOT":7.5e-7,"MEAN_MOTION_DDOT":0},{"OBJECT_NAME":"ONEWEB-0344","OBJECT_ID":"2021-083AA","EPOCH":"2026-07-18T19:25:59.693088","CLASSIFICATION_TYPE":"U","MEAN_MOTION":13.13469586,"ECCENTRICITY":0.0002221,"INCLINATION":87.8977,"RA_OF_ASC_NODE":313.946,"ARG_OF_PERICENTER":90.2812,"MEAN_ANOMALY":269.8572,"EPHEMERIS_TYPE":0,"NORAD_CAT_ID":49210,"ELEMENT_SET_NO":999,"REV_AT_EPOCH":23504,"BSTAR":-0.00070951,"MEAN_MOTION_DOT":-0.00000246,"MEAN_MOTION_DDOT":0},{"OBJECT_NAME":"ONEWEB-0345","OBJECT_ID":"2021-083AB","EPOCH":"2026-07-18T19:13:49.185408","CLASSIFICATION_TYPE":"U","MEAN_MOTION":13.13469891,"ECCENTRICITY":0.0002175,"INCLINATION":87.899,"RA_OF_ASC_NODE":313.9327,"ARG_OF_PERICENTER":94.7471,"MEAN_ANOMALY":265.3906,"EPHEMERIS_TYPE":0,"NORAD_CAT_ID":49211,"ELEMENT_SET_NO":999,"REV_AT_EPOCH":23505,"BSTAR":-0.00083058,"MEAN_MOTION_DOT":-0.00000291,"MEAN_MOTION_DDOT":0},{"OBJECT_NAME":"ONEWEB-0346","OBJECT_ID":"2021-083AC","EPOCH":"2026-07-18T18:51:34.604352","CLASSIFICATION_TYPE":"U","MEAN_MOTION":13.186875,"ECCENTRICITY":0.0001442,"INCLINATION":87.9189,"RA_OF_ASC_NODE":329.1726,"ARG_OF_PERICENTER":83.0075,"MEAN_ANOMALY":277.1221,"EPHEMERIS_TYPE":0,"NORAD_CAT_ID":49212,"ELEMENT_SET_NO":999,"REV_AT_EPOCH":23414,"BSTAR":0.0000069776,"MEAN_MOTION_DOT":1.6e-7,"MEAN_MOTION_DDOT":0},{"OBJECT_NAME":"ONEWEB-0348","OBJECT_ID":"2021-083AD","EPOCH":"2026-07-18T16:53:52.543104","CLASSIFICATION_TYPE":"U","MEAN_MOTION":13.20772388,"ECCENTRICITY":0.0001999,"INCLINATION":87.9184,"RA_OF_ASC_NODE":268.161,"ARG_OF_PERICENTER":83.3312,"MEAN_ANOMALY":276.8049,"EPHEMERIS_TYPE":0,"NORAD_CAT_ID":49213,"ELEMENT_SET_NO":999,"REV_AT_EPOCH":24097,"BSTAR":-0.000044235,"MEAN_MOTION_DOT":-5e-8,"MEAN_MOTION_DDOT":0},{"OBJECT_NAME":"ONEWEB-0350","OBJECT_ID":"2021-083AE","EPOCH":"2026-07-18T19:40:49.050624","CLASSIFICATION_TYPE":"U","MEAN_MOTION":13.13472343,"ECCENTRICITY":0.000178,"INCLINATION":87.8982,"RA_OF_ASC_NODE":313.9336,"ARG_OF_PERICENTER":133.1719,"MEAN_ANOMALY":226.9559,"EPHEMERIS_TYPE":0,"NORAD_CAT_ID":49214,"ELEMENT_SET_NO":999,"REV_AT_EPOCH":23508,"BSTAR":-0.00037418,"MEAN_MOTION_DOT":-0.00000124,"MEAN_MOTION_DDOT":0},{"OBJECT_NAME":"ONEWEB-0351","OBJECT_ID":"2021-083AF","EPOCH":"2026-07-18T16:43:58.879200","CLASSIFICATION_TYPE":"U","MEAN_MOTION":13.20770463,"ECCENTRICITY":0.0002706,"INCLINATION":87.9182,"RA_OF_ASC_NODE":268.1612,"ARG_OF_PERICENTER":101.3796,"MEAN_ANOMALY":258.7641,"EPHEMERIS_TYPE":0,"NORAD_CAT_ID":49215,"ELEMENT_SET_NO":999,"REV_AT_EPOCH":24093,"BSTAR":-0.000066452,"MEAN_MOTION_DOT":-1.4e-7,"MEAN_MOTION_DDOT":0},{"OBJECT_NAME":"ONEWEB-0352","OBJECT_ID":"2021-083AG","EPOCH":"2026-07-18T18:59:11.859072","CLASSIFICATION_TYPE":"U","MEAN_MOTION":13.13469638,"ECCENTRICITY":0.0002314,"INCLINATION":87.8981,"RA_OF_ASC_NODE":313.9438,"ARG_OF_PERICENTER":105.7836,"MEAN_ANOMALY":254.3548,"EPHEMERIS_TYPE":0,"NORAD_CAT_ID":49216,"ELEMENT_SET_NO":999,"REV_AT_EPOCH":23517,"BSTAR":0.000062326,"MEAN_MOTION_DOT":3.6e-7,"MEAN_MOTION_DDOT":0},{"OBJECT_NAME":"ONEWEB-0354","OBJECT_ID":"2021-083AH","EPOCH":"2026-07-18T17:22:58.016640","CLASSIFICATION_TYPE":"U","MEAN_MOTION":13.20771235,"ECCENTRICITY":0.0002097,"INCLINATION":87.9178,"RA_OF_ASC_NODE":268.1547,"ARG_OF_PERICENTER":87.059,"MEAN_ANOMALY":273.0783,"EPHEMERIS_TYPE":0,"NORAD_CAT_ID":49217,"ELEMENT_SET_NO":999,"REV_AT_EPOCH":24097,"BSTAR":-0.000017395,"MEAN_MOTION_DOT":6e-8,"MEAN_MOTION_DDOT":0},{"OBJECT_NAME":"ONEWEB-0355","OBJECT_ID":"2021-083AJ","EPOCH":"2026-07-18T19:41:49.514208","CLASSIFICATION_TYPE":"U","MEAN_MOTION":13.13468481,"ECCENTRICITY":0.0002149,"INCLINATION":87.8976,"RA_OF_ASC_NODE":313.9386,"ARG_OF_PERICENTER":100.3301,"MEAN_ANOMALY":259.8071,"EPHEMERIS_TYPE":0,"NORAD_CAT_ID":49218,"ELEMENT_SET_NO":999,"REV_AT_EPOCH":23505,"BSTAR":-0.00052286,"MEAN_MOTION_DOT":-0.00000178,"MEAN_MOTION_DDOT":0},{"OBJECT_NAME":"ONEWEB-0357","OBJECT_ID":"2021-083AK","EPOCH":"2026-07-18T17:18:06.640416","CLASSIFICATION_TYPE":"U","MEAN_MOTION":13.20770382,"ECCENTRICITY":0.0002268,"INCLINATION":87.9178,"RA_OF_ASC_NODE":268.1496,"ARG_OF_PERICENTER":101.9902,"MEAN_ANOMALY":258.1485,"EPHEMERIS_TYPE":0,"NORAD_CAT_ID":49219,"ELEMENT_SET_NO":999,"REV_AT_EPOCH":24097,"BSTAR":8.158e-7,"MEAN_MOTION_DOT":1.3e-7,"MEAN_MOTION_DDOT":0},{"OBJECT_NAME":"ONEWEB-0332","OBJECT_ID":"2021-090A","EPOCH":"2026-07-18T17:33:12.637728","CLASSIFICATION_TYPE":"U","MEAN_MOTION":13.14503676,"ECCENTRICITY":0.0002017,"INCLINATION":87.8962,"RA_OF_ASC_NODE":283.4239,"ARG_OF_PERICENTER":105.9939,"MEAN_ANOMALY":254.1413,"EPHEMERIS_TYPE":0,"NORAD_CAT_ID":49279,"ELEMENT_SET_NO":999,"REV_AT_EPOCH":23172,"BSTAR":-0.00056253,"MEAN_MOTION_DOT":-0.00000196,"MEAN_MOTION_DDOT":0},{"OBJECT_NAME":"ONEWEB-0347","OBJECT_ID":"2021-090B","EPOCH":"2026-07-18T17:03:34.316640","CLASSIFICATION_TYPE":"U","MEAN_MOTION":13.20769129,"ECCENTRICITY":0.0002118,"INCLINATION":87.9181,"RA_OF_ASC_NODE":268.159,"ARG_OF_PERICENTER":104.4051,"MEAN_ANOMALY":255.7318,"EPHEMERIS_TYPE":0,"NORAD_CAT_ID":49280,"ELEMENT_SET_NO":999,"REV_AT_EPOCH":23520,"BSTAR":-0.00027745,"MEAN_MOTION_DOT":-0.000001,"MEAN_MOTION_DDOT":0}]}
