ONEWEB-0340             
1 49206U 21083W   26199.77401906 -.00000160  00000+0 -43954-3 0  9992
2 49206  87.9201 329.1755 0001830  94.1294 266.0048 13.18685901234134
ONEWEB-0341             
1 49207U 21083X   26199.78075800 -.00000134  00000+0 -37386-3 0  9997
2 49207  87.9196 329.1756 0002330  88.4406 271.6993 13.18685205234156
ONEWEB-0342             
1 49208U 21083Y   26199.71416610  .00000105  00000+0  22517-3 0  9995
2 49208  87.9175 268.1536 0002071 105.2985 254.8378 13.20784032240949
ONEWEB-0343             
1 49209U 21083Z   26199.78919087  .00000075  00000+0  15800-3 0  9992
2 49209  87.9194 329.1729 0002300 104.3681 255.7706 13.18687475234208
ONEWEB-0344             
1 49210U 21083AA  26199.80971867 -.00000246  00000+0 -70951-3 0  9991
2 49210  87.8977 313.9460 0002221  90.2812 269.8572 13.13469586235048
ONEWEB-0345             
1 49211U 21083AB  26199.80126372 -.00000291  00000+0 -83058-3 0  9997
2 49211  87.8990 313.9327 0002175  94.7471 265.3906 13.13469891235056
ONEWEB-0346             
1 49212U 21083AC  26199.78581718  .00000016  00000+0  69776-5 0  9990
2 49212  87.9189 329.1726 0001442  83.0075 277.1221 13.18687500234141
ONEWEB-0348             
1 49213U 21083AD  26199.70408036 -.00000005  00000+0 -44235-4 0  9996
2 49213  87.9184 268.1610 0001999  83.3312 276.8049 13.20772388240979
ONEWEB-0350             
1 49214U 21083AE  26199.82001216 -.00000124  00000+0 -37418-3 0  9995
2 49214  87.8982 313.9336 0001780 133.1719 226.9559 13.13472343235080
ONEWEB-0351             
1 49215U 21083AF  26199.69720925 -.00000014  00000+0 -66452-4 0  9995
2 49215  87.9182 268.1612 0002706 101.3796 258.7641 13.20770463240930
ONEWEB-0352             
1 49216U 21083AG  26199.79110948  .00000036  00000+0  62326-4 0  9993
2 49216  87.8981 313.9438 0002314 105.7836 254.3548 13.13469638235179
ONEWEB-0354             
1 49217U 21083AH  26199.72428260  .00000006  00000+0 -17395-4 0  9990
2 49217  87.9178 268.1547 0002097  87.0590 273.0783 13.20771235240978
ONEWEB-0355             
1 49218U 21083AJ  26199.82071197 -.00000178  00000+0 -52286-3 0  9993
2 49218  87.8976 313.9386 0002149 100.3301 259.8071 13.13468481235054
ONEWEB-0357             
1 49219U 21083AK  26199.72091019  .00000013  00000+0  81580-6 0  9996
2 49219  87.9178 268.1496 0002268 101.9902 258.1485 13.20770382240971
ONEWEB-0332             
1 49279U 21090A   26199.73139627 -.00000196  00000+0 -56253-3 0  9999
2 49279  87.8962 283.4239 0002017 105.9939 254.1413 13.14503676231721
ONEWEB-0347             
1 49280U 21090B   26199.71081385 -.00000100  00000+0 -27745-3 0  9995
2 49280  87.9181 268.1590 0002118 104.4051 255.7318 13.20769129235200
